[{"OBJECT_NAME":"IRIDIUM 124","OBJECT_ID":"2017-039H","EPOCH":"2024-10-29T23:39:31.824864","MEAN_MOTION":14.43293067,"ECCENTRICITY":0.0002361,"INCLINATION":86.4551,"RA_OF_ASC_NODE":179.1549,"ARG_OF_PERICENTER":72.3944,"MEAN_ANOMALY":287.7515,"EPHEMERIS_TYPE":0,"CLASSIFICATION_TYPE":"U","NORAD_CAT_ID":42810,"ELEMENT_SET_NO":999,"REV_AT_EPOCH":38926,"BSTAR":0.00049258,"MEAN_MOTION_DOT":1.678e-5,"MEAN_MOTION_DDOT":0},{"OBJECT_NAME":"IRIDIUM 128","OBJECT_ID":"2017-039J","EPOCH":"2024-10-30T03:40:57.895104","MEAN_MOTION":14.34223965,"ECCENTRICITY":0.0002526,"INCLINATION":86.3921,"RA_OF_ASC_NODE":273.7846,"ARG_OF_PERICENTER":87.6093,"MEAN_ANOMALY":272.5391,"EPHEMERIS_TYPE":0,"CLASSIFICATION_TYPE":"U","NORAD_CAT_ID":42811,"ELEMENT_SET_NO":999,"REV_AT_EPOCH":38469,"BSTAR":0.00042685,"MEAN_MOTION_DOT":1.216e-5,"MEAN_MOTION_DDOT":0},{"OBJECT_NAME":"IRIDIUM 121","OBJECT_ID":"2017-039K","EPOCH":"2024-10-30T04:21:42.465600","MEAN_MOTION":14.34220413,"ECCENTRICITY":0.000212,"INCLINATION":86.3973,"RA_OF_ASC_NODE":242.2613,"ARG_OF_PERICENTER":82.001,"MEAN_ANOMALY":278.1427,"EPHEMERIS_TYPE":0,"CLASSIFICATION_TYPE":"U","NORAD_CAT_ID":42812,"ELEMENT_SET_NO":999,"REV_AT_EPOCH":38466,"BSTAR":0.00051536,"MEAN_MOTION_DOT":1.463e-5,"MEAN_MOTION_DDOT":0},{"OBJECT_NAME":"IRIDIUM 133","OBJECT_ID":"2017-061A","EPOCH":"2024-10-29T15:02:54.433824","MEAN_MOTION":14.34220327,"ECCENTRICITY":0.0002199,"INCLINATION":86.392,"RA_OF_ASC_NODE":274.1082,"ARG_OF_PERICENTER":86.9661,"MEAN_ANOMALY":273.1786,"EPHEMERIS_TYPE":0,"CLASSIFICATION_TYPE":"U","NORAD_CAT_ID":42955,"ELEMENT_SET_NO":999,"REV_AT_EPOCH":36941,"BSTAR":0.00021,"MEAN_MOTION_DOT":6.08e-6,"MEAN_MOTION_DDOT":0},{"OBJECT_NAME":"IRIDIUM 100","OBJECT_ID":"2017-061B","EPOCH":"2024-10-29T14:53:46.526496","MEAN_MOTION":14.3422083,"ECCENTRICITY":0.0002458,"INCLINATION":86.3921,"RA_OF_ASC_NODE":274.0436,"ARG_OF_PERICENTER":85.5362,"MEAN_ANOMALY":274.6115,"EPHEMERIS_TYPE":0,"CLASSIFICATION_TYPE":"U","NORAD_CAT_ID":42956,"ELEMENT_SET_NO":999,"REV_AT_EPOCH":36941,"BSTAR":0.00042133,"MEAN_MOTION_DOT":1.2e-5,"MEAN_MOTION_DDOT":0},{"OBJECT_NAME":"IRIDIUM 122","OBJECT_ID":"2017-061C","EPOCH":"2024-10-30T05:12:18.148608","MEAN_MOTION":14.34222973,"ECCENTRICITY":0.0002381,"INCLINATION":86.3922,"RA_OF_ASC_NODE":273.7926,"ARG_OF_PERICENTER":90.0236,"MEAN_ANOMALY":270.1232,"EPHEMERIS_TYPE":0,"CLASSIFICATION_TYPE":"U","NORAD_CAT_ID":42957,"ELEMENT_SET_NO":999,"REV_AT_EPOCH":36950,"BSTAR":0.00034329,"MEAN_MOTION_DOT":9.81e-6,"MEAN_MOTION_DDOT":0},{"OBJECT_NAME":"IRIDIUM 129","OBJECT_ID":"2017-061D","EPOCH":"2024-10-29T19:46:01.982784","MEAN_MOTION":14.34224816,"ECCENTRICITY":0.000202,"INCLINATION":86.3919,"RA_OF_ASC_NODE":274.0178,"ARG_OF_PERICENTER":92.4021,"MEAN_ANOMALY":267.7406,"EPHEMERIS_TYPE":0,"CLASSIFICATION_TYPE":"U","NORAD_CAT_ID":42958,"ELEMENT_SET_NO":999,"REV_AT_EPOCH":36946,"BSTAR":0.00049506,"MEAN_MOTION_DOT":1.407e-5,"MEAN_MOTION_DDOT":0},{"OBJECT_NAME":"IRIDIUM 119","OBJECT_ID":"2017-061E","EPOCH":"2024-10-30T05:03:10.631808","MEAN_MOTION":14.34218923,"ECCENTRICITY":0.0002581,"INCLINATION":86.3926,"RA_OF_ASC_NODE":273.8483,"ARG_OF_PERICENTER":92.5504,"MEAN_ANOMALY":267.5987,"EPHEMERIS_TYPE":0,"CLASSIFICATION_TYPE":"U","NORAD_CAT_ID":42959,"ELEMENT_SET_NO":999,"REV_AT_EPOCH":36953,"BSTAR":0.00012912,"MEAN_MOTION_DOT":3.81e-6,"MEAN_MOTION_DDOT":0},{"OBJECT_NAME":"IRIDIUM 107","OBJECT_ID":"2017-061F","EPOCH":"2024-10-29T19:27:44.606016","MEAN_MOTION":14.34215219,"ECCENTRICITY":0.000256,"INCLINATION":86.3922,"RA_OF_ASC_NODE":274.0334,"ARG_OF_PERICENTER":88.1342,"MEAN_ANOMALY":272.0147,"EPHEMERIS_TYPE":0,"CLASSIFICATION_TYPE":"U","NORAD_CAT_ID":42960,"ELEMENT_SET_NO":999,"REV_AT_EPOCH":36948,"BSTAR":0.00039575,"MEAN_MOTION_DOT":1.128e-5,"MEAN_MOTION_DDOT":0},{"OBJECT_NAME":"IRIDIUM 132","OBJECT_ID":"2017-061G","EPOCH":"2024-10-29T21:17:22.576704","MEAN_MOTION":14.34219698,"ECCENTRICITY":0.0002592,"INCLINATION":86.3919,"RA_OF_ASC_NODE":273.9859,"ARG_OF_PERICENTER":85.9629,"MEAN_ANOMALY":274.1863,"EPHEMERIS_TYPE":0,"CLASSIFICATION_TYPE":"U","NORAD_CAT_ID":42961,"ELEMENT_SET_NO":999,"REV_AT_EPOCH":36949,"BSTAR":0.00012907,"MEAN_MOTION_DOT":3.81e-6,"MEAN_MOTION_DDOT":0},{"OBJECT_NAME":"IRIDIUM 136","OBJECT_ID":"2017-061H","EPOCH":"2024-10-29T20:22:33.449664","MEAN_MOTION":14.34219699,"ECCENTRICITY":0.0002239,"INCLINATION":86.3918,"RA_OF_ASC_NODE":274.0048,"ARG_OF_PERICENTER":91.2107,"MEAN_ANOMALY":268.9345,"EPHEMERIS_TYPE":0,"CLASSIFICATION_TYPE":"U","NORAD_CAT_ID":42962,"ELEMENT_SET_NO":999,"REV_AT_EPOCH":36950,"BSTAR":0.0001506,"MEAN_MOTION_DOT":4.42e-6,"MEAN_MOTION_DDOT":0},{"OBJECT_NAME":"IRIDIUM 139","OBJECT_ID":"2017-061J","EPOCH":"2024-10-30T04:54:02.601792","MEAN_MOTION":14.34216131,"ECCENTRICITY":0.0002609,"INCLINATION":86.3929,"RA_OF_ASC_NODE":273.909,"ARG_OF_PERICENTER":89.9852,"MEAN_ANOMALY":270.1643,"EPHEMERIS_TYPE":0,"CLASSIFICATION_TYPE":"U","NORAD_CAT_ID":42963,"ELEMENT_SET_NO":999,"REV_AT_EPOCH":36956,"BSTAR":2.5742e-5,"MEAN_MOTION_DOT":9.2e-7,"MEAN_MOTION_DDOT":0},{"OBJECT_NAME":"IRIDIUM 125","OBJECT_ID":"2017-061K","EPOCH":"2024-10-29T15:12:02.515680","MEAN_MOTION":14.34219223,"ECCENTRICITY":0.0002522,"INCLINATION":86.3924,"RA_OF_ASC_NODE":274.1981,"ARG_OF_PERICENTER":97.6572,"MEAN_ANOMALY":262.4911,"EPHEMERIS_TYPE":0,"CLASSIFICATION_TYPE":"U","NORAD_CAT_ID":42964,"ELEMENT_SET_NO":999,"REV_AT_EPOCH":36949,"BSTAR":0.00017616,"MEAN_MOTION_DOT":5.13e-6,"MEAN_MOTION_DDOT":0},{"OBJECT_NAME":"IRIDIUM 135","OBJECT_ID":"2017-083A","EPOCH":"2024-10-30T00:37:34.942368","MEAN_MOTION":14.34220032,"ECCENTRICITY":0.0001886,"INCLINATION":86.4023,"RA_OF_ASC_NODE":210.7143,"ARG_OF_PERICENTER":70.9231,"MEAN_ANOMALY":289.2169,"EPHEMERIS_TYPE":0,"CLASSIFICATION_TYPE":"U","NORAD_CAT_ID":43070,"ELEMENT_SET_NO":999,"REV_AT_EPOCH":35884,"BSTAR":0.0003443,"MEAN_MOTION_DOT":9.84e-6,"MEAN_MOTION_DDOT":0},{"OBJECT_NAME":"IRIDIUM 138","OBJECT_ID":"2017-083B","EPOCH":"2024-10-29T23:33:36.680256","MEAN_MOTION":14.34224364,"ECCENTRICITY":0.0001958,"INCLINATION":86.4013,"RA_OF_ASC_NODE":210.4338,"ARG_OF_PERICENTER":99.0382,"MEAN_ANOMALY":261.1035,"EPHEMERIS_TYPE":0,"CLASSIFICATION_TYPE":"U","NORAD_CAT_ID":43071,"ELEMENT_SET_NO":999,"REV_AT_EPOCH":35882,"BSTAR":0.00044821,"MEAN_MOTION_DOT":1.275e-5,"MEAN_MOTION_DDOT":0},{"OBJECT_NAME":"IRIDIUM 116","OBJECT_ID":"2017-083C","EPOCH":"2024-10-30T02:08:54.547872","MEAN_MOTION":14.34223661,"ECCENTRICITY":0.0002161,"INCLINATION":86.4023,"RA_OF_ASC_NODE":210.6814,"ARG_OF_PERICENTER":78.5702,"MEAN_ANOMALY":281.5737,"EPHEMERIS_TYPE":0,"CLASSIFICATION_TYPE":"U","NORAD_CAT_ID":43072,"ELEMENT_SET_NO":999,"REV_AT_EPOCH":35887,"BSTAR":0.00048762,"MEAN_MOTION_DOT":1.386e-5,"MEAN_MOTION_DDOT":0},{"OBJECT_NAME":"IRIDIUM 130","OBJECT_ID":"2017-083D","EPOCH":"2024-10-29T23:42:45.894816","MEAN_MOTION":14.34228042,"ECCENTRICITY":0.000241,"INCLINATION":86.403,"RA_OF_ASC_NODE":210.9409,"ARG_OF_PERICENTER":82.7124,"MEAN_ANOMALY":277.4346,"EPHEMERIS_TYPE":0,"CLASSIFICATION_TYPE":"U","NORAD_CAT_ID":43073,"ELEMENT_SET_NO":999,"REV_AT_EPOCH":35880,"BSTAR":0.00045849,"MEAN_MOTION_DOT":1.304e-5,"MEAN_MOTION_DDOT":0}]